[{"OBJECT_NAME":"ONEWEB-0450","OBJECT_ID":"2021-132AM","EPOCH":"2026-03-09T17:09:03.567168","MEAN_MOTION":13.18686652,"ECCENTRICITY":0.00019502,"INCLINATION":87.9243,"RA_OF_ASC_NODE":355.2212,"ARG_OF_PERICENTER":86.486,"MEAN_ANOMALY":273.6495,"EPHEMERIS_TYPE":0,"CLASSIFICATION_TYPE":"U","NORAD_CAT_ID":50504,"ELEMENT_SET_NO":999,"REV_AT_EPOCH":20849,"BSTAR":0.00020393995,"MEAN_MOTION_DOT":9.3e-7,"MEAN_MOTION_DDOT":0},{"OBJECT_NAME":"CZ-4C DEB","OBJECT_ID":"2009-072F","EPOCH":"2026-03-09T00:44:11.255712","MEAN_MOTION":13.05436489,"ECCENTRICITY":0.01355425,"INCLINATION":100.5949,"RA_OF_ASC_NODE":353.9651,"ARG_OF_PERICENTER":305.2291,"MEAN_ANOMALY":113.0984,"EPHEMERIS_TYPE":0,"CLASSIFICATION_TYPE":"U","NORAD_CAT_ID":38658,"ELEMENT_SET_NO":999,"REV_AT_EPOCH":76485,"BSTAR":0.0014570037,"MEAN_MOTION_DOT":4.5e-6,"MEAN_MOTION_DDOT":0}]
